H1 CPF  1  HTS 2005 12 11 12  8451 lageos1          NONE
H2  7603901 1155     8820 2005 12 11  0  0  0 2005 12 19  0  0  0   300 1 1  0 0 0
H5  0.2510 
H9 
10 0 53715  81300.00000  0   -1989988.656    6394129.938  -10353246.717
20 0      2742.905860      4746.110552      2410.153614
10 0 53715  81600.00001  0   -1121237.669    7735381.800   -9533600.085
20 0      3035.643792      4179.479430      3045.518148
10 0 53715  81900.00000  0    -176932.451    8892883.341   -8531707.712
20 0      3245.152335      3523.573467      3623.197641
10 0 53715  82200.00000  0     816765.070    9842166.654   -7366556.472
20 0      3363.853246      2794.131122      4132.168009
10 0 53715  82500.00000  0    1831768.460   10563744.368   -6060264.018
20 0      3386.528680      2008.554965      4562.614230
10 0 53715  82800.00000  0    2838802.728   11043550.595   -4637687.278
20 0      3310.497406      1185.516649      4906.119764
10 0 53715  83100.00000  0    3808184.401   11273257.889   -3125976.573
20 0      3135.731631       344.526526      5155.838978
10 0 53715  83400.00000  0    4710626.992   11250460.750   -1554081.119
20 0      2864.908634      -494.524276      5306.647917
10 0 53715  83700.00000  0    5518051.597   10978718.786      47786.827
20 0      2503.392701     -1311.839708      5355.268465
10 0 53715  84000.00000  0    6204381.258   10467455.830    1648720.467
20 0      2059.144651     -2088.201330      5300.361109
10 0 53715  84300.00001  0    6746297.204    9731714.829    3217709.558
20 0      1542.558321     -2805.445148      5142.582051
10 0 53715  84600.00000  0    7123935.270    8791772.166    4724242.827
20 0       966.225617     -3446.919616      4884.601120
10 0 53715  84900.00000  0    7321501.580    7672619.096    6138909.530
20 0       344.634235     -3997.911381      4531.077751
10 0 53715  85200.00000  0    7327788.259    6403321.955    7433987.313
20 0      -306.195283     -4446.025452      4088.593575
10 0 53715  85500.00000  0    7136572.278    5016276.734    8584003.326
20 0      -969.123955     -4781.507424      3565.541626
10 0 53715  85800.00000  0    6746883.653    3546377.026    9566255.775
20 0     -1626.348944     -4997.497078      2971.973825
10 0 53715  86100.00000  0    6163132.810    2030117.271   10361283.818
20 0     -2259.885545     -5090.204976      2319.409684
10 0 53716      0.00000  0    5395090.984     504655.354   10953274.751
20 0     -2852.062723     -5059.006091      1620.610294
10 0 53716    300.00000  0    4457721.701    -993140.016   11330398.786
20 0     -3386.017872     -4906.447237       889.322513
10 0 53716    600.00001  0    3370865.760   -2427631.089   11485063.301
20 0     -3846.176322     -4638.167585       139.998831
10 0 53716    900.00000  0    2158786.442   -3765316.177   11414080.135
20 0     -4218.701335     -4262.734014      -612.501094
10 0 53716   1200.00000  0     849585.885   -4975673.067   11118741.419
20 0     -4491.900739     -3791.395416     -1353.220597
10 0 53716   1500.00000  0    -525492.419   -6031917.380   10604801.508
20 0     -4656.577453     -3237.762723     -2067.420564
10 0 53716   1800.00000  0   -1932856.452   -6911654.922    9882364.828
20 0     -4706.312882     -2617.423907     -2740.890948
10 0 53716   2100.00000  0   -3337432.302   -7597410.165    8965681.603
20 0     -4637.674057     -1947.505091     -3360.252143
10 0 53716   2400.00000  0   -4703580.549   -8077016.516    7872855.573
20 0     -4450.337232     -1246.190250     -3913.239195
10 0 53716   2700.00000  0   -5996036.531   -8343858.009    6625469.945
20 0     -4147.122782      -532.213499     -4388.961476
10 0 53716   3000.00000  0   -7180847.455   -8396956.503    5248140.036
20 0     -3733.939301       175.660500     -4778.130463
10 0 53716   3300.00001  0   -8226279.283   -8240903.267    3768003.204
20 0     -3219.638428       859.151603     -5073.249172
10 0 53716   3600.00000  0   -9103667.221   -7885638.768    2214158.343
20 0     -2615.785260      1500.958485     -5268.758199
10 0 53716   3900.00000  0   -9788185.642   -7346089.203     617068.531
20 0     -1936.352259      2085.216849     -5361.134876
10 0 53716   4200.00000  0  -10259515.987   -6641672.750    -992058.772
20 0     -1197.347241      2597.907664     -5348.943607
10 0 53716   4500.00000  0  -10502394.775   -5795692.355   -2581899.260
20 0      -416.388440      3027.203570     -5232.837231
10 0 53716   4800.00000  0  -10507028.020   -4834635.053   -4121632.589
20 0       387.758632      3363.744278     -5015.511255
10 0 53716   5100.00000  0  -10269362.909   -3787400.111   -5581542.821
20 0      1195.667080      3600.834997     -4701.614681
10 0 53716   5400.00000  0   -9791212.193   -2684479.556   -6933586.253
20 0      1987.742158      3734.565269     -4297.622629
10 0 53716   5700.00000  0   -9080231.147   -1557114.969   -8151916.042
20 0      2744.708447      3763.848699     -3811.676742
10 0 53716   6000.00001  0   -8149750.896    -436453.863   -9213354.895
20 0      3448.078262      3690.386644     -3253.399644
10 0 53716   6300.00000  0   -7018475.399     647272.252  -10097808.999
20 0      4080.590652      3518.560974     -2633.689714
10 0 53716   6600.00000  0   -5710052.228    1665527.818  -10788618.173
20 0      4626.612408      3255.262688     -1964.502103
10 0 53716   6900.00000  0   -4252529.595    2592193.126  -11272838.926
20 0      5072.494639      2909.664209     -1258.621185
10 0 53716   7200.00000  0   -2677713.639    3404208.471  -11541458.494
20 0      5406.880354      2492.943634      -529.428557
10 0 53716   7500.00000  0   -1020441.215    4082129.412  -11589538.985
20 0      5620.959889      2017.969126       209.330455
10 0 53716   7800.00000  0     682215.843    4610582.354  -11416291.527
20 0      5708.671896      1498.951255       943.779792
10 0 53716   8100.00000  0    2391798.343    4978611.944  -11025080.736
20 0      5666.847987       951.070694      1660.143926
10 0 53716   8400.00000  0    4069342.069    5179913.978  -10423360.194
20 0      5495.299174       390.088344      2344.976440
10 0 53716   8700.00001  0    5676277.083    5212949.579   -9622539.880
20 0      5196.842283      -168.055093      2985.384859
10 0 53716   9000.00000  0    7175325.741    5080938.562   -8637786.884
20 0      4777.264692      -707.642885      3569.250356
10 0 53716   9300.00000  0    8531380.710    4791732.091   -7487761.197
20 0      4245.226078     -1213.581979      4085.440507
10 0 53716   9600.00000  0    9712343.948    4357567.011   -6194289.019
20 0      3612.096353     -1671.790744      4524.012631
10 0 53716   9900.00000  0   10689907.483    3794706.690   -4781976.868
20 0      2891.729880     -2069.566427      4876.404472
10 0 53716  10200.00000  0   11440257.072    3122975.758   -3277770.868
20 0      2100.177369     -2395.923508      5135.608344
10 0 53716  10500.00000  0   11944680.417    2365198.844   -1710466.825
20 0      1255.338526     -2641.893914      5296.324216
10 0 53716  10800.00000  0   12190062.927    1546556.094    -110178.148
20 0       376.560595     -2800.780014      5355.086872
10 0 53716  11100.00000  0   12169255.810     693870.966    1492229.879
20 0      -515.809728     -2868.351837      5310.362263
10 0 53716  11400.00001  0   11881303.948    -165151.811    3065729.537
20 0     -1400.911323     -2842.980892      5162.608586
10 0 53716  11700.00000  0   11331524.159   -1002718.130    4579732.664
20 0     -2257.878844     -2725.704458      4914.298241
10 0 53716  12000.00000  0   10531428.303   -1791744.684    6004692.992
20 0     -3066.364506     -2520.216058      4569.897867
10 0 53716  12300.00000  0    9498489.960   -2506644.951    7312696.008
20 0     -3807.056645     -2232.780226      4135.805017
10 0 53716  12600.00000  0    8255757.933   -3124078.307    8478023.310
20 0     -4462.179789     -1872.072212      3620.241538
10 0 53716  12900.00000  0    6831324.375   -3623640.149    9477678.635
20 0     -5015.961277     -1448.945863      3033.105085
10 0 53716  13200.00000  0    5257659.744   -3988472.311   10291863.394
20 0     -5455.050244      -976.135411      2385.781453
10 0 53716  13500.00000  0    3570830.827   -4205775.064   10904390.485
20 0     -5768.876115      -467.899147      1690.921572
10 0 53716  13800.00000  0    1809621.704   -4267204.735   11303026.508
20 0     -5949.935509        60.385017       962.188030
10 0 53716  14100.00001  0      14580.529   -4169144.212   11479754.071
20 0     -5993.998646       592.660412       213.976827
10 0 53716  14400.00000  0   -1772982.710   -3912837.338   11430947.678
20 0     -5900.228834      1112.655990      -538.879357
10 0 53716  14700.00000  0   -3512020.722   -3504382.165   11157458.653
20 0     -5671.211191      1604.360513     -1281.419834
10 0 53716  15000.00000  0   -5162768.236   -2954582.233   10664606.494
20 0     -5312.889144      2052.492548     -1998.869888
10 0 53716  15300.00000  0   -6687728.512   -2278659.245    9962076.096
20 0     -4834.409467      2442.952077     -2676.953117
10 0 53716  15600.00000  0   -8052600.013   -1495834.783    9063722.444
20 0     -4247.879192      2763.239729     -3302.194711
10 0 53716  15900.00000  0   -9227117.689    -628792.783    7987286.639
20 0     -3568.040643      3002.830283     -3862.207984
10 0 53716  16200.00000  0  -10185785.588     296961.640    6754029.427
20 0     -2811.873711      3153.488312     -4345.956655
10 0 53716  16500.00000  0  -10908480.677    1253828.070    5388290.560
20 0     -1998.137156      3209.515677     -4743.985825
10 0 53716  16800.00001  0  -11380911.640    2212899.658    3916984.363
20 0     -1146.862950      3167.922845     -5048.615380
10 0 53716  17100.00000  0  -11594920.899    3144791.260    2369043.589
20 0      -278.819557      3028.518726     -5254.090555
10 0 53716  17400.00000  0  -11548623.089    4020481.981     774825.023
20 0       585.038753      2793.916777     -5356.685840
